start=new Date('2022-07-16T00:00:00.000Z').valueOf();
sats=[{"BSTAR":"0.00011686000000","NORAD_CAT_ID":"46160","APOAPSIS":"548.403","COUNTRY_CODE":"US","MEAN_ELEMENT_THEORY":"SGP4","ECCENTRICITY":"0.00017080","CENTER_NAME":"EARTH","GP_ID":"208201011","OBJECT_NAME":"STARLINK-1598","RA_OF_ASC_NODE":"159.6910","RCS_SIZE":"LARGE","TLE_LINE2":"2 46160  53.0541 159.6910 0001708  55.0662 305.0487 15.06397984106712","EPHEMERIS_TYPE":"0","TLE_LINE1":"1 46160U 20057AV  22196.91076354  .00001459  00000-0  11686-3 0  9990","MEAN_ANOMALY":"305.0487","CLASSIFICATION_TYPE":"U","MEAN_MOTION":"15.06397984","REF_FRAME":"TEME","REV_AT_EPOCH":"10671","LAUNCH_DATE":"2020-08-18","MEAN_MOTION_DOT":"0.00001459","OBJECT_ID":"2020-057AV","MEAN_MOTION_DDOT":"0.0000000000000","TIME_SYSTEM":"UTC","PERIOD":"95.592","ELEMENT_SET_NO":"999","ARG_OF_PERICENTER":"55.0662","SITE":"AFETR","FILE":"3514839","INCLINATION":"53.0541","OBJECT_TYPE":"PAYLOAD","PERIAPSIS":"546.037","DECAY_DATE":null,"SEMIMAJOR_AXIS":"6925.355","EPOCH":"2022-07-15T21:51:29.969856"},{"COUNTRY_CODE":"US","MEAN_ELEMENT_THEORY":"SGP4","APOAPSIS":"548.271","CENTER_NAME":"EARTH","ECCENTRICITY":"0.00015540","GP_ID":"208201262","OBJECT_NAME":"STARLINK-1600","RA_OF_ASC_NODE":"160.0861","BSTAR":"0.00033166000000","NORAD_CAT_ID":"46161","TLE_LINE1":"1 46161U 20057AW  22196.82230462  .00004663  00000-0  33166-3 0  9990","EPHEMERIS_TYPE":"0","MEAN_ANOMALY":"284.3014","CLASSIFICATION_TYPE":"U","REF_FRAME":"TEME","MEAN_MOTION":"15.06406187","RCS_SIZE":"LARGE","TLE_LINE2":"2 46161  53.0531 160.0861 0001554  75.8148 284.3014 15.06406187106701","PERIOD":"95.592","SITE":"AFETR","ELEMENT_SET_NO":"999","ARG_OF_PERICENTER":"75.8148","LAUNCH_DATE":"2020-08-18","REV_AT_EPOCH":"10670","OBJECT_ID":"2020-057AW","MEAN_MOTION_DOT":"0.00004663","TIME_SYSTEM":"UTC","MEAN_MOTION_DDOT":"0.0000000000000","EPOCH":"2022-07-15T19:44:07.119168","SEMIMAJOR_AXIS":"6925.330","FILE":"3514839","INCLINATION":"53.0531","OBJECT_TYPE":"PAYLOAD","PERIAPSIS":"546.118","DECAY_DATE":null},{"CLASSIFICATION_TYPE":"U","REF_FRAME":"TEME","MEAN_MOTION":"15.06393852","EPHEMERIS_TYPE":"0","TLE_LINE1":"1 46162U 20057AX  22196.89233517  .00000831  00000-0  74697-4 0  9990","MEAN_ANOMALY":"293.3191","RCS_SIZE":"LARGE","TLE_LINE2":"2 46162  53.0546 159.7903 0001323  66.7937 293.3191 15.06393852106721","OBJECT_NAME":"STARLINK-1603","GP_ID":"208200010","RA_OF_ASC_NODE":"159.7903","COUNTRY_CODE":"US","MEAN_ELEMENT_THEORY":"SGP4","APOAPSIS":"548.149","ECCENTRICITY":"0.00013230","CENTER_NAME":"EARTH","BSTAR":"0.00007469700000","NORAD_CAT_ID":"46162","EPOCH":"2022-07-15T21:24:57.758688","SEMIMAJOR_AXIS":"6925.367","OBJECT_TYPE":"PAYLOAD","PERIAPSIS":"546.316","DECAY_DATE":null,"FILE":"3514839","INCLINATION":"53.0546","PERIOD":"95.593","SITE":"AFETR","ARG_OF_PERICENTER":"66.7937","ELEMENT_SET_NO":"999","OBJECT_ID":"2020-057AX","MEAN_MOTION_DOT":"0.00000831","TIME_SYSTEM":"UTC","MEAN_MOTION_DDOT":"0.0000000000000","LAUNCH_DATE":"2020-08-18","REV_AT_EPOCH":"10672"},{"DECAY_DATE":null,"OBJECT_TYPE":"PAYLOAD","PERIAPSIS":"545.905","INCLINATION":"53.0557","FILE":"3514546","SEMIMAJOR_AXIS":"6925.344","EPOCH":"2022-07-15T13:24:35.946432","MEAN_MOTION_DDOT":"0.0000000000000","TIME_SYSTEM":"UTC","MEAN_MOTION_DOT":"0.00001068","OBJECT_ID":"2020-057AY","REV_AT_EPOCH":"10569","LAUNCH_DATE":"2020-08-18","ARG_OF_PERICENTER":"66.9112","ELEMENT_SET_NO":"999","SITE":"AFETR","PERIOD":"95.592","TLE_LINE2":"2 46163  53.0557 141.2655 0001883  66.9112 293.2075 15.06401393105697","RCS_SIZE":"LARGE","MEAN_MOTION":"15.06401393","REF_FRAME":"TEME","CLASSIFICATION_TYPE":"U","MEAN_ANOMALY":"293.2075","TLE_LINE1":"1 46163U 20057AY  22196.55874938  .00001068  00000-0  90586-4 0  9990","EPHEMERIS_TYPE":"0","NORAD_CAT_ID":"46163","BSTAR":"0.00009058600000","RA_OF_ASC_NODE":"141.2655","OBJECT_NAME":"STARLINK-1610","GP_ID":"208170211","CENTER_NAME":"EARTH","ECCENTRICITY":"0.00018830","APOAPSIS":"548.513","MEAN_ELEMENT_THEORY":"SGP4","COUNTRY_CODE":"US"},{"TLE_LINE2":"2 46164  53.0539 141.2835 0001454  73.8897 286.2252 15.06403993106350","RCS_SIZE":"LARGE","MEAN_MOTION":"15.06403993","REF_FRAME":"TEME","CLASSIFICATION_TYPE":"U","MEAN_ANOMALY":"286.2252","TLE_LINE1":"1 46164U 20057AZ  22196.55506162  .00000745  00000-0  68892-4 0  9998","EPHEMERIS_TYPE":"0","NORAD_CAT_ID":"46164","BSTAR":"0.00006889200000","RA_OF_ASC_NODE":"141.2835","GP_ID":"208175727","OBJECT_NAME":"STARLINK-1612","CENTER_NAME":"EARTH","ECCENTRICITY":"0.00014540","APOAPSIS":"548.208","COUNTRY_CODE":"US","MEAN_ELEMENT_THEORY":"SGP4","DECAY_DATE":null,"PERIAPSIS":"546.194","OBJECT_TYPE":"PAYLOAD","INCLINATION":"53.0539","FILE":"3514615","SEMIMAJOR_AXIS":"6925.336","EPOCH":"2022-07-15T13:19:17.323968","MEAN_MOTION_DDOT":"0.0000000000000","TIME_SYSTEM":"UTC","MEAN_MOTION_DOT":"0.00000745","OBJECT_ID":"2020-057AZ","REV_AT_EPOCH":"10635","LAUNCH_DATE":"2020-08-18","ARG_OF_PERICENTER":"73.8897","ELEMENT_SET_NO":"999","SITE":"AFETR","PERIOD":"95.592"},{"PERIOD":"95.133","SITE":"AFETR","ELEMENT_SET_NO":"999","ARG_OF_PERICENTER":"11.8090","OBJECT_ID":"2020-057BA","MEAN_MOTION_DOT":"0.00008785","TIME_SYSTEM":"UTC","MEAN_MOTION_DDOT":"0.0000000000000","LAUNCH_DATE":"2020-08-18","REV_AT_EPOCH":"10517","EPOCH":"2022-07-15T08:41:55.581504","SEMIMAJOR_AXIS":"6903.164","PERIAPSIS":"523.387","OBJECT_TYPE":"PAYLOAD","DECAY_DATE":null,"INCLINATION":"53.0521","FILE":"3514546","GP_ID":"208169212","OBJECT_NAME":"STARLINK-1613","RA_OF_ASC_NODE":"177.2153","MEAN_ELEMENT_THEORY":"SGP4","COUNTRY_CODE":"US","APOAPSIS":"526.671","CENTER_NAME":"EARTH","ECCENTRICITY":"0.00023790","BSTAR":"0.00049876000000","NORAD_CAT_ID":"46165","CLASSIFICATION_TYPE":"U","REF_FRAME":"TEME","MEAN_MOTION":"15.13667461","TLE_LINE1":"1 46165U 20057BA  22196.36244886  .00008785  00000-0  49876-3 0  9992","EPHEMERIS_TYPE":"0","MEAN_ANOMALY":"348.2957","RCS_SIZE":"LARGE","TLE_LINE2":"2 46165  53.0521 177.2153 0002379  11.8090 348.2957 15.13667461105178"},{"PERIOD":"95.592","ARG_OF_PERICENTER":"70.7778","ELEMENT_SET_NO":"999","SITE":"AFETR","MEAN_MOTION_DOT":"-0.00000103","OBJECT_ID":"2020-057BB","MEAN_MOTION_DDOT":"0.0000000000000","TIME_SYSTEM":"UTC","REV_AT_EPOCH":"10510","LAUNCH_DATE":"2020-08-18","SEMIMAJOR_AXIS":"6925.360","EPOCH":"2022-07-15T08:11:27.722112","OBJECT_TYPE":"PAYLOAD","PERIAPSIS":"546.145","DECAY_DATE":null,"INCLINATION":"53.0534","FILE":"3514546","OBJECT_NAME":"STARLINK-1615","GP_ID":"208169461","RA_OF_ASC_NODE":"182.2529","APOAPSIS":"548.304","MEAN_ELEMENT_THEORY":"SGP4","COUNTRY_CODE":"US","ECCENTRICITY":"0.00015590","CENTER_NAME":"EARTH","BSTAR":"0.00001199500000","NORAD_CAT_ID":"46166","CLASSIFICATION_TYPE":"U","MEAN_MOTION":"15.06396366","REF_FRAME":"TEME","EPHEMERIS_TYPE":"0","TLE_LINE1":"1 46166U 20057BB  22196.34129308 -.00000103  00000-0  11995-4 0  9991","MEAN_ANOMALY":"289.3379","RCS_SIZE":"LARGE","TLE_LINE2":"2 46166  53.0534 182.2529 0001559  70.7778 289.3379 15.06396366105103"},{"OBJECT_TYPE":"PAYLOAD","PERIAPSIS":"546.022","DECAY_DATE":null,"INCLINATION":"53.0526","FILE":"3514839","EPOCH":"2022-07-15T18:05:55.114368","SEMIMAJOR_AXIS":"6925.322","OBJECT_ID":"2020-057BC","MEAN_MOTION_DOT":"0.00000726","TIME_SYSTEM":"UTC","MEAN_MOTION_DDOT":"0.0000000000000","LAUNCH_DATE":"2020-08-18","REV_AT_EPOCH":"10516","PERIOD":"95.592","SITE":"AFETR","ELEMENT_SET_NO":"999","ARG_OF_PERICENTER":"63.0408","RCS_SIZE":"LARGE","TLE_LINE2":"2 46167  53.0526 180.3975 0001683  63.0408 297.0753 15.06408508105162","CLASSIFICATION_TYPE":"U","REF_FRAME":"TEME","MEAN_MOTION":"15.06408508","TLE_LINE1":"1 46167U 20057BC  22196.75411012  .00000726  00000-0  67590-4 0  9995","EPHEMERIS_TYPE":"0","MEAN_ANOMALY":"297.0753","BSTAR":"0.00006759000000","NORAD_CAT_ID":"46167","OBJECT_NAME":"STARLINK-1626","GP_ID":"208199760","RA_OF_ASC_NODE":"180.3975","MEAN_ELEMENT_THEORY":"SGP4","COUNTRY_CODE":"US","APOAPSIS":"548.353","ECCENTRICITY":"0.00016830","CENTER_NAME":"EARTH"},{"DECAY_DATE":null,"OBJECT_TYPE":"PAYLOAD","PERIAPSIS":"546.003","FILE":"3514839","INCLINATION":"53.0545","EPOCH":"2022-07-15T19:10:56.712864","SEMIMAJOR_AXIS":"6925.332","TIME_SYSTEM":"UTC","MEAN_MOTION_DDOT":"0.0000000000000","OBJECT_ID":"2020-057BD","MEAN_MOTION_DOT":"0.00001659","LAUNCH_DATE":"2020-08-18","REV_AT_EPOCH":"10586","SITE":"AFETR","ARG_OF_PERICENTER":"67.4645","ELEMENT_SET_NO":"999","PERIOD":"95.592","TLE_LINE2":"2 46168  53.0545 130.2789 0001723  67.4645 292.6526 15.06405516105869","RCS_SIZE":"LARGE","REF_FRAME":"TEME","MEAN_MOTION":"15.06405516","CLASSIFICATION_TYPE":"U","MEAN_ANOMALY":"292.6526","TLE_LINE1":"1 46168U 20057BD  22196.79926751  .00001659  00000-0  13023-3 0  9998","EPHEMERIS_TYPE":"0","NORAD_CAT_ID":"46168","BSTAR":"0.00013023000000","RA_OF_ASC_NODE":"130.2789","GP_ID":"208201012","OBJECT_NAME":"STARLINK-1627","CENTER_NAME":"EARTH","ECCENTRICITY":"0.00017230","COUNTRY_CODE":"US","MEAN_ELEMENT_THEORY":"SGP4","APOAPSIS":"548.390"},{"DECAY_DATE":null,"PERIAPSIS":"548.432","OBJECT_TYPE":"PAYLOAD","FILE":"3514839","INCLINATION":"53.0024","EPOCH":"2022-07-15T15:41:43.512576","SEMIMAJOR_AXIS":"6927.862","TIME_SYSTEM":"UTC","MEAN_MOTION_DDOT":"0.0000000000000","OBJECT_ID":"2020-057BE","MEAN_MOTION_DOT":"-0.00001521","LAUNCH_DATE":"2020-08-18","REV_AT_EPOCH":"10510","SITE":"AFETR","ELEMENT_SET_NO":"999","ARG_OF_PERICENTER":"75.5789","PERIOD":"95.644","TLE_LINE2":"2 46169  53.0024 180.8350 0001869  75.5789 284.5406 15.05580349105108","RCS_SIZE":"LARGE","REF_FRAME":"TEME","MEAN_MOTION":"15.05580349","CLASSIFICATION_TYPE":"U","MEAN_ANOMALY":"284.5406","TLE_LINE1":"1 46169U 20057BE  22196.65397584 -.00001521  00000-0 -85194-4 0  9999","EPHEMERIS_TYPE":"0","NORAD_CAT_ID":"46169","BSTAR":"-0.00008519400000","RA_OF_ASC_NODE":"180.8350","GP_ID":"208201263","OBJECT_NAME":"STARLINK-1628","ECCENTRICITY":"0.00018690","CENTER_NAME":"EARTH","COUNTRY_CODE":"US","MEAN_ELEMENT_THEORY":"SGP4","APOAPSIS":"551.022"}];
